[
  {
    "OBJECT_NAME": "STARLINK-31076",
    "OBJECT_ID": "24005J",
    "EPOCH": "2025-11-11T06:18:08.721216",
    "MEAN_MOTION": 15.02534071,
    "ECCENTRICITY": 9.4e-05,
    "INCLINATION": 43.0003,
    "RA_OF_ASC_NODE": 145.415,
    "ARG_OF_PERICENTER": 266.0227,
    "MEAN_ANOMALY": 94.0508,
    "EPHEMERIS_TYPE": 0,
    "CLASSIFICATION_TYPE": "U",
    "NORAD_CAT_ID": 58736,
    "ELEMENT_SET_NO": 999,
    "REV_AT_EPOCH": 10264,
    "BSTAR": 0.00015249,
    "MEAN_MOTION_DOT": 1.857e-05,
    "MEAN_MOTION_DDOT": 0.0,
    "TLE_LINE1": "1 58736U 24005J   25315.26260094  .00001857  00000+0  15249-3 0  9999",
    "TLE_LINE2": "2 58736  43.0003 145.4150 0000940 266.0227  94.0508 15.02534071102646",
    "COMMENT": "Grouped by shell and plane from TLE"
  },
  {
    "OBJECT_NAME": "STARLINK-31101",
    "OBJECT_ID": "24005K",
    "EPOCH": "2025-11-10T14:11:16.703520",
    "MEAN_MOTION": 15.02532364,
    "ECCENTRICITY": 0.0001362,
    "INCLINATION": 43.0025,
    "RA_OF_ASC_NODE": 148.9761,
    "ARG_OF_PERICENTER": 261.9818,
    "MEAN_ANOMALY": 98.087,
    "EPHEMERIS_TYPE": 0,
    "CLASSIFICATION_TYPE": "U",
    "NORAD_CAT_ID": 58737,
    "ELEMENT_SET_NO": 999,
    "REV_AT_EPOCH": 10249,
    "BSTAR": 0.0001139,
    "MEAN_MOTION_DOT": 1.335e-05,
    "MEAN_MOTION_DDOT": 0.0,
    "TLE_LINE1": "1 58737U 24005K   25314.59116555  .00001335  00000+0  11390-3 0  9991",
    "TLE_LINE2": "2 58737  43.0025 148.9761 0001362 261.9818  98.0870 15.02532364102498",
    "COMMENT": "Grouped by shell and plane from TLE"
  },
  {
    "OBJECT_NAME": "STARLINK-31108",
    "OBJECT_ID": "24005L",
    "EPOCH": "2025-11-11T06:13:20.480448",
    "MEAN_MOTION": 15.02554349,
    "ECCENTRICITY": 0.0001563,
    "INCLINATION": 43.0034,
    "RA_OF_ASC_NODE": 145.3891,
    "ARG_OF_PERICENTER": 263.4938,
    "MEAN_ANOMALY": 96.5726,
    "EPHEMERIS_TYPE": 0,
    "CLASSIFICATION_TYPE": "U",
    "NORAD_CAT_ID": 58738,
    "ELEMENT_SET_NO": 999,
    "REV_AT_EPOCH": 10259,
    "BSTAR": 0.0,
    "MEAN_MOTION_DOT": -8.02e-06,
    "MEAN_MOTION_DDOT": 0.0,
    "TLE_LINE1": "1 58738U 24005L   25315.25926482 -.00000802  00000+0 -44269-4 0  9996",
    "TLE_LINE2": "2 58738  43.0034 145.3891 0001563 263.4938  96.5726 15.02554349102598",
    "COMMENT": "Grouped by shell and plane from TLE"
  },
  {
    "OBJECT_NAME": "STARLINK-31042",
    "OBJECT_ID": "24005M",
    "EPOCH": "2025-11-11T06:03:46.757664",
    "MEAN_MOTION": 15.02532604,
    "ECCENTRICITY": 0.0001211,
    "INCLINATION": 43.0027,
    "RA_OF_ASC_NODE": 145.3373,
    "ARG_OF_PERICENTER": 268.9521,
    "MEAN_ANOMALY": 91.1182,
    "EPHEMERIS_TYPE": 0,
    "CLASSIFICATION_TYPE": "U",
    "NORAD_CAT_ID": 58739,
    "ELEMENT_SET_NO": 999,
    "REV_AT_EPOCH": 10260,
    "BSTAR": 0.00019714000000000003,
    "MEAN_MOTION_DOT": 2.46e-05,
    "MEAN_MOTION_DDOT": 0.0,
    "TLE_LINE1": "1 58739U 24005M   25315.25262451  .00002460  00000+0  19714-3 0  9992",
    "TLE_LINE2": "2 58739  43.0027 145.3373 0001211 268.9521  91.1182 15.02532604102603",
    "COMMENT": "Grouped by shell and plane from TLE"
  },
  {
    "OBJECT_NAME": "STARLINK-31159",
    "OBJECT_ID": "24005N",
    "EPOCH": "2025-11-11T05:58:57.911232",
    "MEAN_MOTION": 15.02556399,
    "ECCENTRICITY": 0.0001011,
    "INCLINATION": 42.9978,
    "RA_OF_ASC_NODE": 145.313,
    "ARG_OF_PERICENTER": 271.8514,
    "MEAN_ANOMALY": 88.2213,
    "EPHEMERIS_TYPE": 0,
    "CLASSIFICATION_TYPE": "U",
    "NORAD_CAT_ID": 58740,
    "ELEMENT_SET_NO": 999,
    "REV_AT_EPOCH": 10269,
    "BSTAR": 4.9003000000000005e-05,
    "MEAN_MOTION_DOT": 4.59e-06,
    "MEAN_MOTION_DDOT": 0.0,
    "TLE_LINE1": "1 58740U 24005N   25315.24928138  .00000459  00000+0  49003-4 0  9995",
    "TLE_LINE2": "2 58740  42.9978 145.3130 0001011 271.8514  88.2213 15.02556399102690",
    "COMMENT": "Grouped by shell and plane from TLE"
  },
  {
    "OBJECT_NAME": "STARLINK-31148",
    "OBJECT_ID": "24005P",
    "EPOCH": "2025-11-11T05:54:10.560384",
    "MEAN_MOTION": 15.02540806,
    "ECCENTRICITY": 0.0001098,
    "INCLINATION": 43.0051,
    "RA_OF_ASC_NODE": 145.3062,
    "ARG_OF_PERICENTER": 269.8343,
    "MEAN_ANOMALY": 90.2374,
    "EPHEMERIS_TYPE": 0,
    "CLASSIFICATION_TYPE": "U",
    "NORAD_CAT_ID": 58741,
    "ELEMENT_SET_NO": 999,
    "REV_AT_EPOCH": 10260,
    "BSTAR": 0.00012879,
    "MEAN_MOTION_DOT": 1.537e-05,
    "MEAN_MOTION_DDOT": 0.0,
    "TLE_LINE1": "1 58741U 24005P   25315.24595556  .00001537  00000+0  12879-3 0  9998",
    "TLE_LINE2": "2 58741  43.0051 145.3062 0001098 269.8343  90.2374 15.02540806102609",
    "COMMENT": "Grouped by shell and plane from TLE"
  },
  {
    "OBJECT_NAME": "STARLINK-31151",
    "OBJECT_ID": "24005Q",
    "EPOCH": "2025-11-11T05:49:22.930464",
    "MEAN_MOTION": 15.02537863,
    "ECCENTRICITY": 8.2e-05,
    "INCLINATION": 43.002,
    "RA_OF_ASC_NODE": 145.281,
    "ARG_OF_PERICENTER": 271.1211,
    "MEAN_ANOMALY": 88.9537,
    "EPHEMERIS_TYPE": 0,
    "CLASSIFICATION_TYPE": "U",
    "NORAD_CAT_ID": 58742,
    "ELEMENT_SET_NO": 999,
    "REV_AT_EPOCH": 10269,
    "BSTAR": 0.00025899,
    "MEAN_MOTION_DOT": 3.297e-05,
    "MEAN_MOTION_DDOT": 0.0,
    "TLE_LINE1": "1 58742U 24005Q   25315.24262651  .00003297  00000+0  25899-3 0  9997",
    "TLE_LINE2": "2 58742  43.0020 145.2810 0000820 271.1211  88.9537 15.02537863102691",
    "COMMENT": "Grouped by shell and plane from TLE"
  },
  {
    "OBJECT_NAME": "STARLINK-31156",
    "OBJECT_ID": "24005R",
    "EPOCH": "2025-11-11T05:44:35.176992",
    "MEAN_MOTION": 15.02541442,
    "ECCENTRICITY": 0.0001195,
    "INCLINATION": 43.0011,
    "RA_OF_ASC_NODE": 145.2562,
    "ARG_OF_PERICENTER": 265.3249,
    "MEAN_ANOMALY": 94.7457,
    "EPHEMERIS_TYPE": 0,
    "CLASSIFICATION_TYPE": "U",
    "NORAD_CAT_ID": 58743,
    "ELEMENT_SET_NO": 999,
    "REV_AT_EPOCH": 10265,
    "BSTAR": 0.00021433,
    "MEAN_MOTION_DOT": 2.693e-05,
    "MEAN_MOTION_DDOT": 0.0,
    "TLE_LINE1": "1 58743U 24005R   25315.23929603  .00002693  00000+0  21433-3 0  9993",
    "TLE_LINE2": "2 58743  43.0011 145.2562 0001195 265.3249  94.7457 15.02541442102658",
    "COMMENT": "Grouped by shell and plane from TLE"
  },
  {
    "OBJECT_NAME": "STARLINK-31176",
    "OBJECT_ID": "24005T",
    "EPOCH": "2025-11-11T05:34:59.638080",
    "MEAN_MOTION": 15.02538819,
    "ECCENTRICITY": 0.000113,
    "INCLINATION": 43.0025,
    "RA_OF_ASC_NODE": 145.2039,
    "ARG_OF_PERICENTER": 268.4864,
    "MEAN_ANOMALY": 91.5849,
    "EPHEMERIS_TYPE": 0,
    "CLASSIFICATION_TYPE": "U",
    "NORAD_CAT_ID": 58745,
    "ELEMENT_SET_NO": 999,
    "REV_AT_EPOCH": 10264,
    "BSTAR": 9.842100000000001e-05,
    "MEAN_MOTION_DOT": 1.126e-05,
    "MEAN_MOTION_DDOT": 0.0,
    "TLE_LINE1": "1 58745U 24005T   25315.23263470  .00001126  00000+0  98421-4 0  9990",
    "TLE_LINE2": "2 58745  43.0025 145.2039 0001130 268.4864  91.5849 15.02538819102643",
    "COMMENT": "Grouped by shell and plane from TLE"
  },
  {
    "OBJECT_NAME": "STARLINK-31183",
    "OBJECT_ID": "24005V",
    "EPOCH": "2025-11-10T21:26:45.824352",
    "MEAN_MOTION": 15.02534095,
    "ECCENTRICITY": 0.0001215,
    "INCLINATION": 43.0029,
    "RA_OF_ASC_NODE": 146.9601,
    "ARG_OF_PERICENTER": 261.3554,
    "MEAN_ANOMALY": 98.715,
    "EPHEMERIS_TYPE": 0,
    "CLASSIFICATION_TYPE": "U",
    "NORAD_CAT_ID": 58747,
    "ELEMENT_SET_NO": 999,
    "REV_AT_EPOCH": 10265,
    "BSTAR": 5.7535000000000004e-05,
    "MEAN_MOTION_DOT": 5.74e-06,
    "MEAN_MOTION_DDOT": 0.0,
    "TLE_LINE1": "1 58747U 24005V   25314.89358593  .00000574  00000+0  57535-4 0  9991",
    "TLE_LINE2": "2 58747  43.0029 146.9601 0001215 261.3554  98.7150 15.02534095102651",
    "COMMENT": "Grouped by shell and plane from TLE"
  },
  {
    "OBJECT_NAME": "STARLINK-31165",
    "OBJECT_ID": "24005W",
    "EPOCH": "2025-11-11T05:30:11.920896",
    "MEAN_MOTION": 15.02533843,
    "ECCENTRICITY": 0.0001101,
    "INCLINATION": 43.0033,
    "RA_OF_ASC_NODE": 145.1774,
    "ARG_OF_PERICENTER": 260.0776,
    "MEAN_ANOMALY": 99.9942,
    "EPHEMERIS_TYPE": 0,
    "CLASSIFICATION_TYPE": "U",
    "NORAD_CAT_ID": 58748,
    "ELEMENT_SET_NO": 999,
    "REV_AT_EPOCH": 10260,
    "BSTAR": 0.00012048000000000001,
    "MEAN_MOTION_DOT": 1.424e-05,
    "MEAN_MOTION_DDOT": 0.0,
    "TLE_LINE1": "1 58748U 24005W   25315.22930464  .00001424  00000+0  12048-3 0  9997",
    "TLE_LINE2": "2 58748  43.0033 145.1774 0001101 260.0776  99.9942 15.02533843102602",
    "COMMENT": "Grouped by shell and plane from TLE"
  },
  {
    "OBJECT_NAME": "STARLINK-31160",
    "OBJECT_ID": "24005X",
    "EPOCH": "2025-11-11T05:15:48.320928",
    "MEAN_MOTION": 15.02533973,
    "ECCENTRICITY": 9.06e-05,
    "INCLINATION": 43.0025,
    "RA_OF_ASC_NODE": 145.0365,
    "ARG_OF_PERICENTER": 260.6301,
    "MEAN_ANOMALY": 99.4439,
    "EPHEMERIS_TYPE": 0,
    "CLASSIFICATION_TYPE": "U",
    "NORAD_CAT_ID": 58749,
    "ELEMENT_SET_NO": 999,
    "REV_AT_EPOCH": 10260,
    "BSTAR": 8.7019e-05,
    "MEAN_MOTION_DOT": 9.72e-06,
    "MEAN_MOTION_DDOT": 0.0,
    "TLE_LINE1": "1 58749U 24005X   25315.21930927  .00000972  00000+0  87019-4 0  9999",
    "TLE_LINE2": "2 58749  43.0025 145.0365 0000906 260.6301  99.4439 15.02533973102601",
    "COMMENT": "Grouped by shell and plane from TLE"
  },
  {
    "OBJECT_NAME": "STARLINK-31179",
    "OBJECT_ID": "24005Y",
    "EPOCH": "2025-11-11T05:20:36.171168",
    "MEAN_MOTION": 15.02538718,
    "ECCENTRICITY": 0.0001297,
    "INCLINATION": 43.002,
    "RA_OF_ASC_NODE": 145.1248,
    "ARG_OF_PERICENTER": 266.4475,
    "MEAN_ANOMALY": 93.6219,
    "EPHEMERIS_TYPE": 0,
    "CLASSIFICATION_TYPE": "U",
    "NORAD_CAT_ID": 58750,
    "ELEMENT_SET_NO": 999,
    "REV_AT_EPOCH": 10260,
    "BSTAR": 9.269600000000001e-05,
    "MEAN_MOTION_DOT": 1.049e-05,
    "MEAN_MOTION_DDOT": 0.0,
    "TLE_LINE1": "1 58750U 24005Y   25315.22264087  .00001049  00000+0  92696-4 0  9992",
    "TLE_LINE2": "2 58750  43.0020 145.1248 0001297 266.4475  93.6219 15.02538718102603",
    "COMMENT": "Grouped by shell and plane from TLE"
  }
]